NORAD_CAT_ID,OBJECT_NAME,OBJECT_TYPE,EPOCH,MEAN_MOTION,ECCENTRICITY,INCLINATION,RA_OF_ASC_NODE,ARG_OF_PERICENTER,MEAN_ANOMALY,BSTAR,MEAN_MOTION_DOT,MEAN_MOTION_DDOT,TLE_LINE0,TLE_LINE1,TLE_LINE2,SEMIMAJOR_AXIS,PERIOD,APOGEE,PERIGEE,DECAYED
56477.0,STARLINK-5534,PAYLOAD,2023-10-03 12:50:54,14.98679798,0.0003036,69.9996,203.7551,271.7083,88.3729,-0.0050406,-0.00060266,0.0,0 STARLINK-5534,1 56477U 23064AF  23276.53535355 -.00060266  00000-0 -50406-2 0  9997,2 56477  69.9996 203.7551 0003036 271.7083  88.3729 14.98679798 22708,6949.111,96.085,573.086,568.867,0.0
56477.0,STARLINK-5534,PAYLOAD,2023-10-03 20:51:29,14.98644729,0.0002981,69.9996,202.9133,266.7901,93.2917,-0.0048508,-0.00057966,0.0,0 STARLINK-5534,1 56477U 23064AF  23276.86909541 -.00057966  00000-0 -48508-2 0  9998,2 56477  69.9996 202.9133 0002981 266.7901  93.2917 14.98644729 22751,6949.22,96.087,573.156,569.013,0.0
56477.0,STARLINK-5534,PAYLOAD,2023-10-04 12:52:43,14.98533504,0.000326,69.999,201.2311,273.1414,86.9372,-0.0031589,-0.00037781,0.0,0 STARLINK-5534,1 56477U 23064AF  23277.53661475 -.00037781  00000-0 -31589-2 0  9998,2 56477  69.9990 201.2311 0003260 273.1414  86.9372 14.98533504 22850,6949.564,96.094,573.694,569.163,0.0
56477.0,STARLINK-5534,PAYLOAD,2023-10-04 19:17:19,14.98327907,0.0002728,70.0003,200.5571,273.2296,86.8551,-6.6848e-05,-8.9e-06,0.0,0 STARLINK-5534,1 56477U 23064AF  23277.80369739 -.00000890  00000-0 -66848-4 0  9995,2 56477  70.0003 200.5571 0002728 273.2296  86.8551 14.98327907 23256,6950.199,96.107,573.96,570.168,0.0
56477.0,STARLINK-5534,PAYLOAD,2023-10-04 20:53:27,14.98328508,0.00028,69.9992,200.386,267.7166,92.3672,-2.4145e-05,-3.81e-06,0.0,0 STARLINK-5534,1 56477U 23064AF  23277.87045557 -.00000381  00000-0 -24145-4 0  9990,2 56477  69.9992 200.3860 0002800 267.7166  92.3672 14.98328508 22909,6950.198,96.107,574.009,570.116,0.0
56477.0,STARLINK-5534,PAYLOAD,2023-10-05 14:00:01,14.98292012,0.0003111,70.0008,198.5906,269.5962,334.7302,0.0061511,0.00074009,0.0,0 STARLINK-5534,1 56477U 23064AF  23278.58334491  .00074009  00000-0  61511-2 0  9999,2 56477  70.0008 198.5906 0003111 269.5962 334.7302 14.98292012  5947,6950.31,96.109,574.338,570.013,0.0
56477.0,STARLINK-5534,PAYLOAD,2023-10-05 22:00:00,14.98381101,0.0003145,70.001,197.7504,270.3411,331.4455,-0.004981,-0.00059106,0.0,0 STARLINK-5534,1 56477U 23064AF  23278.91667824 -.00059106  00000-0 -49810-2 0  9996,2 56477  70.0010 197.7504 0003145 270.3411 331.4455 14.98381101 23414,6950.035,96.104,574.086,569.714,0.0
56477.0,STARLINK-5534,PAYLOAD,2023-10-06 04:56:07,14.98335945,0.0003296,69.9999,197.0222,282.2774,77.8015,0.00011811,1.317e-05,0.0,0 STARLINK-5534,1 56477U 23064AF  23279.20564706  .00001317  00000-0  11811-3 0  9994,2 56477  69.9999 197.0222 0003296 282.2774  77.8015 14.98335945 23461,6950.175,96.107,574.33,569.749,0.0
56477.0,STARLINK-5534,PAYLOAD,2023-10-06 20:57:29,14.98320987,0.0002431,70.0022,195.3416,272.4938,87.5943,6.1712e-06,-1.9e-07,0.0,0 STARLINK-5534,1 56477U 23064AF  23279.87326010 -.00000019  00000-0  61712-5 0  9997,2 56477  70.0022 195.3416 0002431 272.4938  87.5943 14.98320987 23200,6950.221,96.108,573.775,570.396,0.0
56477.0,STARLINK-5534,PAYLOAD,2023-10-07 01:45:53,14.9832145,0.0002506,70.0019,194.8367,266.9887,93.0985,-1.9333e-05,-3.24e-06,0.0,0 STARLINK-5534,1 56477U 23064AF  23280.07354100 -.00000324  00000-0 -19333-4 0  9993,2 56477  70.0019 194.8367 0002506 266.9887  93.0985 14.98321450 23595,6950.219,96.108,573.826,570.343,0.0
56477.0,STARLINK-5534,PAYLOAD,2023-10-07 11:22:41,14.98350256,0.0002803,70.0003,193.8238,278.7833,81.3009,-0.00040059,-4.872e-05,0.0,0 STARLINK-5534,1 56477U 23064AF  23280.47409112 -.00004872  00000-0 -40059-3 0  9991,2 56477  70.0003 193.8238 0002803 278.7833  81.3009 14.98350256 23296,6950.13,96.106,573.943,570.047,0.0
56477.0,STARLINK-5534,PAYLOAD,2023-10-07 20:59:30,14.98307252,0.0002942,70.0004,192.8142,270.4023,89.6799,0.00031207,3.63e-05,0.0,0 STARLINK-5534,1 56477U 23064AF  23280.87465905  .00003630  00000-0  31207-3 0  9991,2 56477  70.0004 192.8142 0002942 270.4023  89.6799 14.98307252 23356,6950.263,96.108,574.173,570.083,0.0
56477.0,STARLINK-5534,PAYLOAD,2023-10-08 01:47:53,14.98337403,0.0002981,70.0001,192.3085,266.3182,93.7636,0.00032383,3.774e-05,0.0,0 STARLINK-5534,1 56477U 23064AF  23281.07492200  .00003774  00000-0  32383-3 0  9997,2 56477  70.0001 192.3085 0002981 266.3182  93.7636 14.98337403 23747,6950.17,96.107,574.107,569.963,0.0
56477.0,STARLINK-5534,PAYLOAD,2023-10-08 03:24:02,14.98317958,0.0002957,70.0,192.1403,267.5168,92.5653,0.00036705,4.288e-05,0.0,0 STARLINK-5534,1 56477U 23064AF  23281.14169290  .00004288  00000-0  36705-3 0  9998,2 56477  70.0000 192.1403 0002957 267.5168  92.5653 14.98317958 23758,6950.23,96.108,574.15,570.04,0.0
56477.0,STARLINK-5534,PAYLOAD,2023-10-08 11:24:42,14.98352373,0.0002899,70.0001,191.2986,276.7847,83.2982,-0.00041687,-5.066e-05,0.0,0 STARLINK-5534,1 56477U 23064AF  23281.47548940 -.00005066  00000-0 -41687-3 0  9999,2 56477  70.0001 191.2986 0002899 276.7847  83.2982 14.98352373 23444,6950.124,96.106,574.004,569.974,0.0
56477.0,STARLINK-5534,PAYLOAD,2023-10-08 21:01:31,14.98326388,0.0002947,69.9996,190.2883,271.9181,88.164,4.0672e-05,3.92e-06,0.0,0 STARLINK-5534,1 56477U 23064AF  23281.87605553  .00000392  00000-0  40672-4 0  9996,2 56477  69.9996 190.2883 0002947 271.9181  88.1640 14.98326388 23500,6950.204,96.107,574.117,570.021,0.0
56477.0,STARLINK-5534,PAYLOAD,2023-10-09 03:27:19,14.97357152,0.0006823,70.0003,189.6197,150.6762,209.478,-0.0098487,-0.00112917,0.0,0 STARLINK-5534,1 56477U 23064AF  23282.14397150 -.00112917  00000-0 -98487-2 0  9992,2 56477  70.0003 189.6197 0006823 150.6762 209.4780 14.97357152 23906,6953.203,96.169,579.812,570.324,0.0
56477.0,STARLINK-5534,PAYLOAD,2023-10-09 14:00:01,14.9827424,0.0003236,70.001,188.5059,269.7914,304.3483,0.0076286,0.00092003,0.0,0 STARLINK-5534,1 56477U 23064AF  23282.58334491  .00092003  00000-0  76286-2 0  9993,2 56477  70.0010 188.5059 0003236 269.7914 304.3483 14.98274240 23963,6950.365,96.111,574.479,569.981,0.0
56477.0,STARLINK-5534,PAYLOAD,2023-10-09 21:03:31,14.98331807,0.0003113,70.0001,187.7653,273.3782,86.7021,5.2568e-05,5.34e-06,0.0,0 STARLINK-5534,1 56477U 23064AF  23282.87744930  .00000534  00000-0  52568-4 0  9995,2 56477  70.0001 187.7653 0003113 273.3782  86.7021 14.98331807 23650,6950.187,96.107,574.216,569.889,0.0
56477.0,STARLINK-5534,PAYLOAD,2023-10-10 01:51:54,14.98344751,0.0002705,69.9996,187.2581,270.8117,89.2732,9.1874e-05,1.004e-05,0.0,0 STARLINK-5534,1 56477U 23064AF  23283.07771870  .00001004  00000-0  91874-4 0  9997,2 56477  69.9996 187.2581 0002705 270.8117  89.2732 14.98344751 24048,6950.147,96.106,573.892,570.132,0.0
56477.0,STARLINK-5534,PAYLOAD,2023-10-10 11:28:44,14.98326742,0.0003053,69.9994,186.2496,268.5044,91.5765,-7.9388e-05,-1.04e-05,0.0,0 STARLINK-5534,1 56477U 23064AF  23283.47829138 -.00001040  00000-0 -79388-4 0  9990,2 56477  69.9994 186.2496 0003053 268.5044  91.5765 14.98326742 23748,6950.203,96.107,574.19,569.946,0.0
56477.0,STARLINK-5534,PAYLOAD,2023-10-10 17:53:17,14.98318784,0.0002765,69.9995,185.5762,267.7746,92.3097,-0.00010792,-1.38e-05,0.0,0 STARLINK-5534,1 56477U 23064AF  23283.74533884 -.00001380  00000-0 -10792-3 0  9990,2 56477  69.9995 185.5762 0002765 267.7746  92.3097 14.98318784 24145,6950.228,96.108,574.014,570.171,0.0
56477.0,STARLINK-5534,PAYLOAD,2023-10-10 21:05:33,14.98316884,0.0002813,69.9996,185.2396,267.2029,92.8808,-0.00012711,-1.609e-05,0.0,0 STARLINK-5534,1 56477U 23064AF  23283.87886115 -.00001609  00000-0 -12711-3 0  9999,2 56477  69.9996 185.2396 0002813 267.2029  92.8808 14.98316884 23805,6950.233,96.108,574.054,570.143,0.0
56477.0,STARLINK-5534,PAYLOAD,2023-10-11 03:30:05,14.98323045,0.0002745,70.0,184.5657,264.0331,96.0515,-0.00016039,-2.006e-05,0.0,0 STARLINK-5534,1 56477U 23064AF  23284.14589950 -.00002006  00000-0 -16039-3 0  9996,2 56477  70.0000 184.5657 0002745 264.0331  96.0515 14.98323045 23843,6950.214,96.107,573.987,570.172,0.0
56477.0,STARLINK-5534,PAYLOAD,2023-10-11 17:55:17,14.98329744,0.0002829,69.9997,183.0506,265.1205,94.9632,-0.00011462,-1.46e-05,0.0,0 STARLINK-5534,1 56477U 23064AF  23284.74673469 -.00001460  00000-0 -11462-3 0  9999,2 56477  69.9997 183.0506 0002829 265.1205  94.9632 14.98329744 24296,6950.194,96.107,574.025,570.092,0.0
56477.0,STARLINK-5534,PAYLOAD,2023-10-12 09:56:38,14.98336418,0.0002655,70.0,181.3686,271.089,88.9965,-0.00012531,-1.588e-05,0.0,0 STARLINK-5534,1 56477U 23064AF  23285.41433195 -.00001588  00000-0 -12531-3 0  9993,2 56477  70.0000 181.3686 0002655 271.0890  88.9965 14.98336418 24037,6950.173,96.107,573.883,570.193,0.0
56477.0,STARLINK-5534,PAYLOAD,2023-10-12 19:33:26,14.98328996,0.0002558,69.9999,180.3584,268.7717,91.3149,7.9636e-05,8.57e-06,0.0,0 STARLINK-5534,1 56477U 23064AF  23285.81489251  .00000857  00000-0  79636-4 0  9997,2 56477  69.9999 180.3584 0002558 268.7717  91.3149 14.98328996 24450,6950.196,96.107,573.839,570.283,0.0
56477.0,STARLINK-5534,PAYLOAD,2023-10-12 21:09:34,14.98323648,0.0002795,69.9998,180.1902,267.0131,93.0708,0.00016592,1.887e-05,0.0,0 STARLINK-5534,1 56477U 23064AF  23285.88165318  .00001887  00000-0  16592-3 0  9994,2 56477  69.9998 180.1902 0002795 267.0131  93.0708 14.98323648 24107,6950.213,96.107,574.02,570.135,0.0
56477.0,STARLINK-5534,PAYLOAD,2023-10-13 03:34:06,14.98331573,0.0002638,70.0,179.5169,264.2735,95.8123,0.00022528,2.596e-05,0.0,0 STARLINK-5534,1 56477U 23064AF  23286.14868655  .00002596  00000-0  22528-3 0  9992,2 56477  70.0000 179.5169 0002638 264.2735  95.8123 14.98331573 24507,6950.188,96.107,573.886,570.22,0.0
56477.0,STARLINK-5534,PAYLOAD,2023-10-13 21:11:35,14.98329756,0.0002542,70.0005,177.6655,263.2333,96.8537,7.0852e-05,7.53e-06,0.0,0 STARLINK-5534,1 56477U 23064AF  23286.88305172  .00000753  00000-0  70852-4 0  9990,2 56477  70.0005 177.6655 0002542 263.2333  96.8537 14.98329756 24610,6950.194,96.107,573.825,570.292,0.0
